[{"OBJECT_NAME":"STARLINK-3602","OBJECT_ID":"2022-017Z","EPOCH":"2025-09-29T05:25:26.018112","MEAN_MOTION":15.08860781,"ECCENTRICITY":0.00014764,"INCLINATION":53.2172,"RA_OF_ASC_NODE":353.9565,"ARG_OF_PERICENTER":106.5838,"MEAN_ANOMALY":253.5317,"EPHEMERIS_TYPE":0,"CLASSIFICATION_TYPE":"U","NORAD_CAT_ID":51791,"ELEMENT_SET_NO":999,"REV_AT_EPOCH":19954,"BSTAR":0.00034861919,"MEAN_MOTION_DOT":5.268e-5,"MEAN_MOTION_DDOT":0},{"OBJECT_NAME":"STARLINK-3626","OBJECT_ID":"2022-017AA","EPOCH":"2025-09-28T17:51:13.706496","MEAN_MOTION":15.08844294,"ECCENTRICITY":9.092e-5,"INCLINATION":53.2183,"RA_OF_ASC_NODE":356.1245,"ARG_OF_PERICENTER":87.5847,"MEAN_ANOMALY":272.5249,"EPHEMERIS_TYPE":0,"CLASSIFICATION_TYPE":"U","NORAD_CAT_ID":51792,"ELEMENT_SET_NO":999,"REV_AT_EPOCH":19952,"BSTAR":0.00016758567,"MEAN_MOTION_DOT":2.381e-5,"MEAN_MOTION_DDOT":0},{"OBJECT_NAME":"STARLINK-3633","OBJECT_ID":"2022-017AB","EPOCH":"2025-09-29T05:21:30.898656","MEAN_MOTION":15.08837981,"ECCENTRICITY":0.00013981,"INCLINATION":53.2188,"RA_OF_ASC_NODE":353.9793,"ARG_OF_PERICENTER":95.9619,"MEAN_ANOMALY":264.1533,"EPHEMERIS_TYPE":0,"CLASSIFICATION_TYPE":"U","NORAD_CAT_ID":51793,"ELEMENT_SET_NO":999,"REV_AT_EPOCH":19959,"BSTAR":-3.168388e-6,"MEAN_MOTION_DOT":-3.38e-6,"MEAN_MOTION_DDOT":0},{"OBJECT_NAME":"STARLINK-3573","OBJECT_ID":"2022-017AC","EPOCH":"2025-09-28T12:54:28.315872","MEAN_MOTION":15.08844001,"ECCENTRICITY":0.0001429,"INCLINATION":53.2194,"RA_OF_ASC_NODE":357.0465,"ARG_OF_PERICENTER":95.4949,"MEAN_ANOMALY":264.6206,"EPHEMERIS_TYPE":0,"CLASSIFICATION_TYPE":"U","NORAD_CAT_ID":51794,"ELEMENT_SET_NO":999,"REV_AT_EPOCH":19944,"BSTAR":7.6082147e-5,"MEAN_MOTION_DOT":9.23e-6,"MEAN_MOTION_DDOT":0},{"OBJECT_NAME":"STARLINK-3586","OBJECT_ID":"2022-017AD","EPOCH":"2025-09-29T05:20:09.766464","MEAN_MOTION":15.08840905,"ECCENTRICITY":0.0001598,"INCLINATION":53.2177,"RA_OF_ASC_NODE":354.1744,"ARG_OF_PERICENTER":98.7688,"MEAN_ANOMALY":261.3485,"EPHEMERIS_TYPE":0,"CLASSIFICATION_TYPE":"U","NORAD_CAT_ID":51795,"ELEMENT_SET_NO":999,"REV_AT_EPOCH":19954,"BSTAR":8.1000597e-5,"MEAN_MOTION_DOT":1.001e-5,"MEAN_MOTION_DDOT":0},{"OBJECT_NAME":"STARLINK-3634","OBJECT_ID":"2022-017AG","EPOCH":"2025-09-29T06:02:31.522272","MEAN_MOTION":15.088382,"ECCENTRICITY":0.00016621,"INCLINATION":53.2182,"RA_OF_ASC_NODE":353.8431,"ARG_OF_PERICENTER":110.8646,"MEAN_ANOMALY":249.2524,"EPHEMERIS_TYPE":0,"CLASSIFICATION_TYPE":"U","NORAD_CAT_ID":51798,"ELEMENT_SET_NO":999,"REV_AT_EPOCH":19959,"BSTAR":8.0277015e-5,"MEAN_MOTION_DOT":9.9e-6,"MEAN_MOTION_DDOT":0},{"OBJECT_NAME":"STARLINK-3637","OBJECT_ID":"2022-017AH","EPOCH":"2025-09-28T12:49:10.896096","MEAN_MOTION":15.08837607,"ECCENTRICITY":0.00013277,"INCLINATION":53.2188,"RA_OF_ASC_NODE":357.0644,"ARG_OF_PERICENTER":92.5989,"MEAN_ANOMALY":267.5155,"EPHEMERIS_TYPE":0,"CLASSIFICATION_TYPE":"U","NORAD_CAT_ID":51799,"ELEMENT_SET_NO":999,"REV_AT_EPOCH":19944,"BSTAR":7.9647122e-5,"MEAN_MOTION_DOT":9.8e-6,"MEAN_MOTION_DDOT":0},{"OBJECT_NAME":"STARLINK-3592","OBJECT_ID":"2022-017AK","EPOCH":"2025-09-28T11:08:29.803776","MEAN_MOTION":15.08837034,"ECCENTRICITY":0.00014122,"INCLINATION":53.2195,"RA_OF_ASC_NODE":357.383,"ARG_OF_PERICENTER":91.8187,"MEAN_ANOMALY":268.2967,"EPHEMERIS_TYPE":0,"CLASSIFICATION_TYPE":"U","NORAD_CAT_ID":51801,"ELEMENT_SET_NO":999,"REV_AT_EPOCH":19943,"BSTAR":2.4994446e-5,"MEAN_MOTION_DOT":1.1e-6,"MEAN_MOTION_DDOT":0},{"OBJECT_NAME":"STARLINK-3557","OBJECT_ID":"2022-017AL","EPOCH":"2025-09-29T02:57:43.570080","MEAN_MOTION":15.53095336,"ECCENTRICITY":0.00023501,"INCLINATION":53.1967,"RA_OF_ASC_NODE":320.2254,"ARG_OF_PERICENTER":52.3859,"MEAN_ANOMALY":307.7366,"EPHEMERIS_TYPE":0,"CLASSIFICATION_TYPE":"U","NORAD_CAT_ID":51802,"ELEMENT_SET_NO":999,"REV_AT_EPOCH":20001,"BSTAR":0.0022794288,"MEAN_MOTION_DOT":0.00147393,"MEAN_MOTION_DDOT":0},{"OBJECT_NAME":"STARLINK-3544","OBJECT_ID":"2022-017AM","EPOCH":"2025-09-28T10:52:35.854464","MEAN_MOTION":15.08839101,"ECCENTRICITY":0.00010309,"INCLINATION":53.2184,"RA_OF_ASC_NODE":357.4273,"ARG_OF_PERICENTER":111.4065,"MEAN_ANOMALY":248.7037,"EPHEMERIS_TYPE":0,"CLASSIFICATION_TYPE":"U","NORAD_CAT_ID":51803,"ELEMENT_SET_NO":999,"REV_AT_EPOCH":19942,"BSTAR":7.1835639e-5,"MEAN_MOTION_DOT":8.56e-6,"MEAN_MOTION_DDOT":0},{"OBJECT_NAME":"STARLINK-3601","OBJECT_ID":"2022-017AN","EPOCH":"2025-09-29T04:40:23.173824","MEAN_MOTION":15.08836564,"ECCENTRICITY":0.00015752,"INCLINATION":53.2193,"RA_OF_ASC_NODE":334.1045,"ARG_OF_PERICENTER":93.9654,"MEAN_ANOMALY":266.1518,"EPHEMERIS_TYPE":0,"CLASSIFICATION_TYPE":"U","NORAD_CAT_ID":51804,"ELEMENT_SET_NO":999,"REV_AT_EPOCH":19977,"BSTAR":4.8281781e-5,"MEAN_MOTION_DOT":4.8e-6,"MEAN_MOTION_DDOT":0},{"OBJECT_NAME":"STARLINK-3605","OBJECT_ID":"2022-017AP","EPOCH":"2025-09-29T04:45:42.037344","MEAN_MOTION":15.08838716,"ECCENTRICITY":0.00014834,"INCLINATION":53.2184,"RA_OF_ASC_NODE":334.1599,"ARG_OF_PERICENTER":106.6479,"MEAN_ANOMALY":253.4676,"EPHEMERIS_TYPE":0,"CLASSIFICATION_TYPE":"U","NORAD_CAT_ID":51805,"ELEMENT_SET_NO":999,"REV_AT_EPOCH":19986,"BSTAR":5.7203804e-5,"MEAN_MOTION_DOT":6.23e-6,"MEAN_MOTION_DDOT":0},{"OBJECT_NAME":"STARLINK-3606","OBJECT_ID":"2022-017AR","EPOCH":"2025-09-29T05:05:33.335232","MEAN_MOTION":15.08840909,"ECCENTRICITY":0.00017998,"INCLINATION":53.2184,"RA_OF_ASC_NODE":344.0219,"ARG_OF_PERICENTER":100.0316,"MEAN_ANOMALY":260.0879,"EPHEMERIS_TYPE":0,"CLASSIFICATION_TYPE":"U","NORAD_CAT_ID":51807,"ELEMENT_SET_NO":999,"REV_AT_EPOCH":19973,"BSTAR":1.7176667e-5,"MEAN_MOTION_DOT":-1.5e-7,"MEAN_MOTION_DDOT":0},{"OBJECT_NAME":"STARLINK-3609","OBJECT_ID":"2022-017AS","EPOCH":"2025-09-28T12:50:30.126624","MEAN_MOTION":15.0884365,"ECCENTRICITY":0.00013362,"INCLINATION":53.2182,"RA_OF_ASC_NODE":347.0638,"ARG_OF_PERICENTER":90.2769,"MEAN_ANOMALY":269.8376,"EPHEMERIS_TYPE":0,"CLASSIFICATION_TYPE":"U","NORAD_CAT_ID":51808,"ELEMENT_SET_NO":999,"REV_AT_EPOCH":19948,"BSTAR":0.00010926411,"MEAN_MOTION_DOT":1.452e-5,"MEAN_MOTION_DDOT":0},{"OBJECT_NAME":"STARLINK-3607","OBJECT_ID":"2022-017AT","EPOCH":"2025-09-28T11:25:42.787488","MEAN_MOTION":15.08841284,"ECCENTRICITY":0.00017451,"INCLINATION":53.2194,"RA_OF_ASC_NODE":347.2877,"ARG_OF_PERICENTER":91.6048,"MEAN_ANOMALY":268.5145,"EPHEMERIS_TYPE":0,"CLASSIFICATION_TYPE":"U","NORAD_CAT_ID":51809,"ELEMENT_SET_NO":999,"REV_AT_EPOCH":19957,"BSTAR":7.4861454e-5,"MEAN_MOTION_DOT":9.04e-6,"MEAN_MOTION_DDOT":0},{"OBJECT_NAME":"STARLINK-3613","OBJECT_ID":"2022-017AU","EPOCH":"2025-09-28T13:55:27.436224","MEAN_MOTION":15.08848527,"ECCENTRICITY":0.00014083,"INCLINATION":53.2185,"RA_OF_ASC_NODE":337.0809,"ARG_OF_PERICENTER":89.2515,"MEAN_ANOMALY":270.8639,"EPHEMERIS_TYPE":0,"CLASSIFICATION_TYPE":"U","NORAD_CAT_ID":51810,"ELEMENT_SET_NO":999,"REV_AT_EPOCH":19960,"BSTAR":4.7125972e-5,"MEAN_MOTION_DOT":4.62e-6,"MEAN_MOTION_DDOT":0}]
