STARLINK-3602           
1 51791U 22017Z   25272.22599558  .00005268  00000+0  34862-3 0  9994
2 51791  53.2172 353.9565 0001476 106.5838 253.5317 15.08860781199548
STARLINK-3626           
1 51792U 22017AA  25271.74390864  .00002381  00000+0  16759-3 0  9998
2 51792  53.2183 356.1245 0000909  87.5847 272.5249 15.08844294199523
STARLINK-3633           
1 51793U 22017AB  25272.22327429 -.00000338  00000+0 -31684-5 0  9998
2 51793  53.2188 353.9793 0001398  95.9619 264.1533 15.08837981199590
STARLINK-3573           
1 51794U 22017AC  25271.53782773  .00000923  00000+0  76082-4 0  9997
2 51794  53.2194 357.0465 0001429  95.4949 264.6206 15.08844001199442
STARLINK-3586           
1 51795U 22017AD  25272.22233526  .00001001  00000+0  81001-4 0  9997
2 51795  53.2177 354.1744 0001598  98.7688 261.3485 15.08840905199548
STARLINK-3634           
1 51798U 22017AG  25272.25175373  .00000990  00000+0  80277-4 0  9998
2 51798  53.2182 353.8431 0001662 110.8646 249.2524 15.08838200199597
STARLINK-3637           
1 51799U 22017AH  25271.53415389  .00000980  00000+0  79647-4 0  9991
2 51799  53.2188 357.0644 0001327  92.5989 267.5155 15.08837607199447
STARLINK-3592           
1 51801U 22017AK  25271.46423384  .00000110  00000+0  24994-4 0  9991
2 51801  53.2195 357.3830 0001412  91.8187 268.2967 15.08837034199438
STARLINK-3557           
1 51802U 22017AL  25272.12342095  .00147393  00000+0  22794-2 0  9994
2 51802  53.1967 320.2254 0002350  52.3859 307.7366 15.53095336200014
STARLINK-3544           
1 51803U 22017AM  25271.45319276  .00000856  00000+0  71836-4 0  9990
2 51803  53.2184 357.4273 0001030 111.4065 248.7037 15.08839101199427
STARLINK-3601           
1 51804U 22017AN  25272.19471266  .00000480  00000+0  48282-4 0  9993
2 51804  53.2193 334.1045 0001575  93.9654 266.1518 15.08836564199775
STARLINK-3605           
1 51805U 22017AP  25272.19840321  .00000623  00000+0  57204-4 0  9999
2 51805  53.2184 334.1599 0001483 106.6479 253.4676 15.08838716199860
STARLINK-3606           
1 51807U 22017AR  25272.21219138 -.00000015  00000+0  17177-4 0  9991
2 51807  53.2184 344.0219 0001799 100.0316 260.0879 15.08840909199731
STARLINK-3609           
1 51808U 22017AS  25271.53507091  .00001452  00000+0  10926-3 0  9993
2 51808  53.2182 347.0638 0001336  90.2769 269.8376 15.08843650199484
STARLINK-3607           
1 51809U 22017AT  25271.47618967  .00000904  00000+0  74861-4 0  9992
2 51809  53.2194 347.2877 0001745  91.6048 268.5145 15.08841284199575
STARLINK-3613           
1 51810U 22017AU  25271.58017866  .00000462  00000+0  47126-4 0  9990
2 51810  53.2185 337.0809 0001408  89.2515 270.8639 15.08848527199602
